satname,norad_id,inclination_deg,eccentricity,mean_motion_rev_per_day,perigee_km,apogee_km,l1,l2
STARLINK-1008,44714,53.0541,0.0001419,15.06397823,546.2355222306114,548.2009380449244,1 44714U 19074B   25254.03752356 -.00004325  00000+0 -27163-3 0  9997,2 44714  53.0541 273.1112 0001419  90.4208 269.6944 15.06397823321678
STARLINK-1010,44716,53.0524,0.0011007,15.75810529,334.928502350338,349.7229289725956,1 44716U 19074D   25253.36099449  .00111724  00000+0  70309-3 0  9991,2 44716  53.0524 230.4975 0011007  18.3515 341.7899 15.75810529322196
STARLINK-1011,44717,53.0522,0.00072,15.65201865,367.79768844485716,377.5188336207457,1 44717U 19074E   25254.09393774  .00097341  00000+0  95809-3 0  9991,2 44717  53.0522 279.9264 0007200  43.7240 316.4344 15.65201865321583
STARLINK-1012,44718,53.0525,0.0001884,15.06403977,545.8946356609604,548.5041024048123,1 44718U 19074F   25254.08175753 -.00001921  00000+0 -11010-3 0  9999,2 44718  53.0525 272.9142 0001884  84.9332 275.1872 15.06403977321676
STARLINK-1015,44721,53.0458,0.0003241,15.93700077,289.7771751959244,294.1007184246482,1 44721U 19074J   25254.25004630  .00293751  44326-4  79916-3 0  9992,2 44721  53.0458 215.0198 0003241  17.2980 107.1993 15.93700077  6069
STARLINK-1017,44723,53.0528,0.0002887,15.10481711,532.7341361090257,536.7256254459862,1 44723U 19074L   25253.33509502  .00026100  00000+0  15791-2 0  9998,2 44723  53.0528 275.0460 0002887 335.0387  25.0464 15.10481711321582
STARLINK-1019,44724,53.0547,0.0001286,15.064032,546.3111518532196,548.092348979827,1 44724U 19074M   25253.48094597  .00000573  00000+0  57367-4 0  9991,2 44724  53.0547 275.6094 0001286  87.3922 272.7214 15.06403200321583
STARLINK-1020,44725,53.0578,0.0001384,15.06387369,546.2917968063566,548.2087440028035,1 44725U 19074N   25253.81822066 -.00001010  00000+0 -48968-4 0  9995,2 44725  53.0578 294.0964 0001384  99.0839 261.0307 15.06387369321351
STARLINK-1021,44726,53.0449,0.0003488,15.87886732,305.87652082416116,310.54091559718563,1 44726U 19074P   25254.25004630  .00268269  00000+0  94526-3 0  9993,2 44726  53.0449 220.5465 0003488   0.5024 356.0683 15.87886732  5975
STARLINK-1029,44734,53.051,0.0008649,15.82842537,316.6112268231818,328.2018270160479,1 44734U 19074X   25254.25004630  .00183699  00000+0  83269-3 0  9997,2 44734  53.0510 144.0038 0008649  82.6844 333.0285 15.82842537  5955
STARLINK-1030,44735,53.0387,0.0001967,16.09272251,247.53692424837755,250.14397717748943,1 44735U 19074Y   25254.35732986  .00639004  22354-3  69547-3 0  9990,2 44735  53.0387 236.6557 0001967 135.8366 224.2825 16.09272251322209
STARLINK-1031,44736,53.0545,0.0006662,15.36229919,452.7159869564566,461.8234828900677,1 44736U 19074Z   25254.03088872  .00060321  00000+0  16800-2 0  9997,2 44736  53.0545 274.9766 0006662 337.1636  22.9069 15.36229919321650
STARLINK-1036,44741,53.0541,0.0001176,15.06401179,546.393523909971,548.0223650409125,1 44741U 19074AE  25253.84770072  .00001204  00000+0  99671-4 0  9995,2 44741  53.0541 293.9652 0001176  96.3436 263.7687 15.06401179321360
STARLINK-1039,44744,53.0531,0.0004195,15.09016729,536.301427598095,542.1050760693834,1 44744U 19074AH  25254.19359180  .00018124  00000+0  11482-2 0  9991,2 44744  53.0531 311.9190 0004195 314.4452  45.6195 15.09016729321149
STARLINK-1042,44747,53.0467,0.0002921,15.40556546,442.47277187173586,446.4585363422657,1 44747U 19074AL  25254.22309016  .00014301  00000+0  35575-3 0  9994,2 44747  53.0467 229.7399 0002921   8.2021 351.9030 15.40556546322325
STARLINK-1043,44748,53.0547,8.85e-05,15.06390047,546.6291665706976,547.8549586647814,1 44748U 19074AM  25254.15180803  .00006141  00000+0  43089-3 0  9990,2 44748  53.0547 312.5996 0000885  95.5276 264.5814 15.06390047321138
STARLINK-1046,44751,53.0549,0.0001551,15.06388639,546.1722510239069,548.3205049477583,1 44751U 19074AQ  25254.16653079  .00000680  00000+0  64534-4 0  9996,2 44751  53.0549 312.5330 0001551  91.1849 268.9318 15.06388639321136
STARLINK-1047,44752,53.0725,0.0004721,15.27800299,479.1506662772317,485.6283754182159,1 44752U 19074AR  25254.28099342  .00016196  00000+0  59997-3 0  9992,2 44752  53.0725 261.1474 0004721  32.1577 327.9708 15.27800299321870
STARLINK-1048,44753,53.0542,0.0001172,15.06398521,546.404439481722,548.0277422462214,1 44753U 19074AS  25253.79425067 -.00000310  00000+0 -19364-5 0  9994,2 44753  53.0542 274.2023 0001172  85.9727 274.1396 15.06398521321630
STARLINK-1053,44758,53.0423,0.0003298,15.54369375,401.74965386462827,406.2231424580568,1 44758U 19074AX  25253.70944430  .00031025  00000+0  47046-3 0  9991,2 44758  53.0423 251.2866 0003298  47.0768 313.0518 15.54369375321961
STARLINK-1054,44759,53.0468,0.0010745,15.6201654,374.56921358213094,389.0963886847676,1 44759U 19074AY  25254.25004630  .00128066  00000+0  14192-2 0  9999,2 44759  53.0468 279.0073 0010745 335.7403 266.6037 15.62016540  5888
STARLINK-1056,44761,53.0442,0.0011476,15.7354378,341.05841207214235,356.4980278850362,1 44761U 19074BA  25254.04760213  .00131436  00000+0  90942-3 0  9998,2 44761  53.0442 270.2868 0011476   0.6414 359.4617 15.73543780321722
STARLINK-1057,44762,53.0442,0.0004238,15.89874412,299.8033457422207,305.46596779849915,1 44762U 19074BB  25254.25004630  .00301483  00000+0  95773-3 0  9994,2 44762  53.0442 241.3808 0004238   5.3862 355.1901 15.89874412  6065
STARLINK-1060,44765,53.0536,0.0001312,15.19793122,505.5620491237278,507.3685687695961,1 44765U 19074BE  25254.25004630  .00016447  00000+0  77178-3 0  9999,2 44765  53.0536 291.6354 0001312  95.3972  36.5301 15.19793122  5634
STARLINK-1063,44768,53.0539,0.0001305,15.06440447,546.1838546725157,547.9913382921986,1 44768U 19074BH  25254.22182488  .00023380  00000+0  15816-2 0  9991,2 44768  53.0539 312.2829 0001305  95.1719 264.9419 15.06440447321156
STARLINK-1067,44771,53.0547,0.0001156,15.06412732,546.3719706844458,547.973102249276,1 44771U 19074BL  25253.87902665 -.00001540  00000+0 -84510-4 0  9997,2 44771  53.0547 313.8241 0001156  70.6240 289.4873 15.06412732321090
STARLINK-1068,44772,53.055,0.0001388,15.06397241,546.258774335287,548.1812534423425,1 44772U 19074BM  25254.13519830  .00000648  00000+0  62419-4 0  9996,2 44772  53.0550 292.6736 0001388  82.5003 277.6144 15.06397241321406
STARLINK-1098,44917,53.0403,0.0008355,16.21302211,210.50919099404018,221.52802501501537,1 44917U 20001D   25254.37931175  .01762289  11865-4  79624-3 0  9993,2 44917  53.0403  11.9586 0008355 343.0366  17.0392 16.21302211313657
STARLINK-1104,44922,53.034,0.0002668,16.36442489,173.53466393724466,177.0315689113686,1 44922U 20001J   25254.89606097  .06194881  12301-4  68467-3 0  9999,2 44922  53.0340  10.0096 0002668 338.4498  21.6434 16.36442489313728
STARLINK-1112,44925,53.0545,0.000518,15.45070289,427.6443278286479,434.6987714860934,1 44925U 20001M   25254.14371651  .00017313  00000+0  36850-3 0  9992,2 44925  53.0545  45.7052 0005180 126.3055 233.8430 15.45070289313165
STARLINK-1114,44927,53.0556,0.0001307,15.06404244,546.293409363584,548.1036920765418,1 44927U 20001P   25253.90851401  .00001516  00000+0  12063-3 0  9991,2 44927  53.0556  73.6895 0001307  89.2864 270.8275 15.06404244312757
STARLINK-1123,44930,53.0555,0.000121,15.06399857,546.3740289841735,548.0499634412572,1 44930U 20001S   25254.18865695  .00000983  00000+0  84874-4 0  9993,2 44930  53.0555  72.4294 0001210  93.1627 266.9501 15.06399857312799
STARLINK-1144,44933,53.0503,0.0009488,15.48048652,415.982533193107,428.8872984605796,1 44933U 20001V   25253.97412047  .00026201  00000+0  49824-3 0  9997,2 44933  53.0503  25.2906 0009488 251.4947 108.5029 15.48048652314732
STARLINK-1071,44934,53.0365,0.0006719,16.14504821,230.07108542009428,238.95716600282412,1 44934U 20001W   25254.36569619  .00911296  52906-3  69595-3 0  9990,2 44934  53.0365 350.0856 0006719 352.2620   7.8310 16.14504821313950
STARLINK-1091,44940,53.0442,0.0003688,15.72136937,350.3083553233255,355.2730876106789,1 44940U 20001AC  25254.25004630  .00235574  00000+0  17113-2 0  9992,2 44940  53.0442  11.3670 0003688 242.3528 271.9066 15.72136937  5910
STARLINK-1094,44941,53.0552,0.0001342,15.06416511,546.2315795779969,548.0903295490016,1 44941U 20001AD  25253.73711529  .00002624  00000+0  19491-3 0  9997,2 44941  53.0552  54.4559 0001342  86.8778 273.2365 15.06416511313005
STARLINK-1096,44942,52.9947,0.0003124,15.73941051,345.54509848381804,349.7473678479,1 44942U 20001AE  25254.24863091  .00077892  00000+0  53674-3 0  9997,2 44942  52.9947 198.1525 0003124  98.2001 261.9371 15.73941051316063
STARLINK-1122,44949,53.0562,0.000113,15.06397434,546.4368570941415,548.0019876455981,1 44949U 20001AM  25254.15732073  .00000446  00000+0  48859-4 0  9990,2 44949  53.0562  52.5669 0001130  90.5951 269.5168 15.06397434313062
STARLINK-1066,44954,53.0438,0.0005513,16.01896858,265.50133494982856,272.8306512300096,1 44954U 20001AS  25254.22996395  .00426212  91128-4  73095-3 0  9991,2 44954  53.0438 337.1211 0005513   0.5734 359.5301 16.01896858314075
STARLINK-1080,44961,53.0555,9.71e-05,15.06402271,546.5321469899736,547.8770483282397,1 44961U 20001AZ  25254.08912760  .00000175  00000+0  30661-4 0  9990,2 44961  53.0555  32.8779 0000971  84.3189 275.7911 15.06402271313349
STARLINK-1090,44968,53.056,0.0001027,15.0640152,546.4956665426498,547.9181321795795,1 44968U 20001BG  25254.09282412  .00001961  00000+0  15046-3 0  9995,2 44968  53.0560  32.8636 0001027  88.1280 271.9827 15.06401520313341
STARLINK-1107,44972,53.0149,0.0007113,15.53762316,400.927431224849,410.5781928714687,1 44972U 20001BL  25253.81305315  .00055364  00000+0  84925-3 0  9995,2 44972  53.0149 328.1929 0007113  15.0823 345.0397 15.53762316314227
STARLINK-1132,45044,53.0557,0.0001607,15.06399473,546.1002693450264,548.3260768906666,1 45044U 20006A   25254.25131751  .00001666  00000+0  13074-3 0  9994,2 45044  53.0557 352.1493 0001607  87.8593 272.2580 15.06399473309695
